HAWK-11C                
1 62381U 24247E   26068.51221537  .00009223  00000+0  33290-3 0  9992
2 62381  45.0045 114.8762 0005900 329.7040  30.3502 15.28848020 67743
STARLINK-32938          
1 63201U 25048U   26068.11306654  .00027488  00000+0  10035-2 0  9998
2 63201  42.9993  88.5968 0001638 281.6185  78.4483 15.27619256 57003
